[{"CCSDS_OMM_VERS":"2.0","COMMENT":"GENERATED VIA SPACE-TRACK.ORG API","CREATION_DATE":"2019-12-20T21:00:13","ORIGINATOR":"18 SPCS","OBJECT_NAME":"TBA - TO BE ASSIGNED","OBJECT_ID":null,"CENTER_NAME":"EARTH","REF_FRAME":"TEME","TIME_SYSTEM":"UTC","MEAN_ELEMENT_THEORY":"SGP4","EPOCH":"2019-12-20T17:58:31.546272","MEAN_MOTION":"14.85432268","ECCENTRICITY":"0.00476550","INCLINATION":"97.9285","RA_OF_ASC_NODE":"66.8464","ARG_OF_PERICENTER":"286.3082","MEAN_ANOMALY":"204.4744","EPHEMERIS_TYPE":"0","CLASSIFICATION_TYPE":"U","NORAD_CAT_ID":"85429","ELEMENT_SET_NO":"999","REV_AT_EPOCH":"1","BSTAR":"0.00000000000000","MEAN_MOTION_DOT":"-0.00000059","MEAN_MOTION_DDOT":"0.0000000000000","SEMIMAJOR_AXIS":"6990.366","PERIOD":"96.941","APOAPSIS":"645.543","PERIAPSIS":"578.918","OBJECT_TYPE":"TBA","RCS_SIZE":null,"COUNTRY_CODE":null,"LAUNCH_DATE":null,"SITE":null,"DECAY_DATE":null,"FILE":"2670168","GP_ID":"145195325","TLE_LINE0":"0 TBA - TO BE ASSIGNED","TLE_LINE1":"1 85429U          19354.74897623 -.00000059  00000-0  00000+0 0  9990","TLE_LINE2":"2 85429  97.9285  66.8464 0047655 286.3082 204.4744 14.85432268    19"},{"CCSDS_OMM_VERS":"2.0","COMMENT":"GENERATED VIA SPACE-TRACK.ORG API","CREATION_DATE":"2020-01-21T22:40:18","ORIGINATOR":"18 SPCS","OBJECT_NAME":"TBA - TO BE ASSIGNED","OBJECT_ID":null,"CENTER_NAME":"EARTH","REF_FRAME":"TEME","TIME_SYSTEM":"UTC","MEAN_ELEMENT_THEORY":"SGP4","EPOCH":"2020-01-21T20:51:23.797152","MEAN_MOTION":"13.94365943","ECCENTRICITY":"0.00095730","INCLINATION":"67.2351","RA_OF_ASC_NODE":"359.9023","ARG_OF_PERICENTER":"357.1340","MEAN_ANOMALY":"2.9687","EPHEMERIS_TYPE":"0","CLASSIFICATION_TYPE":"U","NORAD_CAT_ID":"85430","ELEMENT_SET_NO":"999","REV_AT_EPOCH":"31","BSTAR":"0.00000000000000","MEAN_MOTION_DOT":"-0.00000074","MEAN_MOTION_DDOT":"0.0000000000000","SEMIMAJOR_AXIS":"7291.507","PERIOD":"103.272","APOAPSIS":"920.352","PERIAPSIS":"906.392","OBJECT_TYPE":"TBA","RCS_SIZE":null,"COUNTRY_CODE":null,"LAUNCH_DATE":null,"SITE":null,"DECAY_DATE":null,"FILE":"2687683","GP_ID":"147170390","TLE_LINE0":"0 TBA - TO BE ASSIGNED","TLE_LINE1":"1 85430U          20021.86902543 -.00000074  00000-0  00000+0 0  9993","TLE_LINE2":"2 85430  67.2351 359.9023 0009573 357.1340   2.9687 13.94365943   317"},{"CCSDS_OMM_VERS":"2.0","COMMENT":"GENERATED VIA SPACE-TRACK.ORG API","CREATION_DATE":"2020-01-21T22:40:18","ORIGINATOR":"18 SPCS","OBJECT_NAME":"TBA - TO BE ASSIGNED","OBJECT_ID":null,"CENTER_NAME":"EARTH","REF_FRAME":"TEME","TIME_SYSTEM":"UTC","MEAN_ELEMENT_THEORY":"SGP4","EPOCH":"2020-01-21T20:49:20.271072","MEAN_MOTION":"13.95094039","ECCENTRICITY":"0.00198270","INCLINATION":"67.1731","RA_OF_ASC_NODE":"359.8537","ARG_OF_PERICENTER":"304.8192","MEAN_ANOMALY":"55.1025","EPHEMERIS_TYPE":"0","CLASSIFICATION_TYPE":"U","NORAD_CAT_ID":"85431","ELEMENT_SET_NO":"999","REV_AT_EPOCH":"31","BSTAR":"0.00000000000000","MEAN_MOTION_DOT":"-0.00000075","MEAN_MOTION_DDOT":"0.0000000000000","SEMIMAJOR_AXIS":"7288.970","PERIOD":"103.218","APOAPSIS":"925.287","PERIAPSIS":"896.383","OBJECT_TYPE":"TBA","RCS_SIZE":null,"COUNTRY_CODE":null,"LAUNCH_DATE":null,"SITE":null,"DECAY_DATE":null,"FILE":"2687684","GP_ID":"147170391","TLE_LINE0":"0 TBA - TO BE ASSIGNED","TLE_LINE1":"1 85431U          20021.86759573 -.00000075  00000-0  00000+0 0  9998","TLE_LINE2":"2 85431  67.1731 359.8537 0019827 304.8192  55.1025 13.95094039   317"},{"CCSDS_OMM_VERS":"2.0","COMMENT":"GENERATED VIA SPACE-TRACK.ORG API","CREATION_DATE":"2019-12-21T02:40:12","ORIGINATOR":"18 SPCS","OBJECT_NAME":"TBA - TO BE ASSIGNED","OBJECT_ID":null,"CENTER_NAME":"EARTH","REF_FRAME":"TEME","TIME_SYSTEM":"UTC","MEAN_ELEMENT_THEORY":"SGP4","EPOCH":"2019-12-21T00:28:04.054368","MEAN_MOTION":"14.81150309","ECCENTRICITY":"0.00098990","INCLINATION":"97.9762","RA_OF_ASC_NODE":"67.1298","ARG_OF_PERICENTER":"266.9265","MEAN_ANOMALY":"216.1987","EPHEMERIS_TYPE":"0","CLASSIFICATION_TYPE":"U","NORAD_CAT_ID":"85434","ELEMENT_SET_NO":"999","REV_AT_EPOCH":"6","BSTAR":"0.00000000000000","MEAN_MOTION_DOT":"-0.00000054","MEAN_MOTION_DDOT":"0.0000000000000","SEMIMAJOR_AXIS":"7003.832","PERIOD":"97.221","APOAPSIS":"632.630","PERIAPSIS":"618.764","OBJECT_TYPE":"TBA","RCS_SIZE":null,"COUNTRY_CODE":null,"LAUNCH_DATE":null,"SITE":null,"DECAY_DATE":null,"FILE":"2670324","GP_ID":"145198480","TLE_LINE0":"0 TBA - TO BE ASSIGNED","TLE_LINE1":"1 85434U          19355.01949137 -.00000054  00000-0  00000+0 0  9990","TLE_LINE2":"2 85434  97.9762  67.1298 0009899 266.9265 216.1987 14.81150309    62"},{"CCSDS_OMM_VERS":"2.0","COMMENT":"GENERATED VIA SPACE-TRACK.ORG API","CREATION_DATE":"2019-12-20T20:50:21","ORIGINATOR":"18 SPCS","OBJECT_NAME":"TBA - TO BE ASSIGNED","OBJECT_ID":null,"CENTER_NAME":"EARTH","REF_FRAME":"TEME","TIME_SYSTEM":"UTC","MEAN_ELEMENT_THEORY":"SGP4","EPOCH":"2019-12-20T19:45:50.478624","MEAN_MOTION":"14.80841181","ECCENTRICITY":"0.00129950","INCLINATION":"97.9717","RA_OF_ASC_NODE":"66.9142","ARG_OF_PERICENTER":"251.4281","MEAN_ANOMALY":"267.3479","EPHEMERIS_TYPE":"0","CLASSIFICATION_TYPE":"U","NORAD_CAT_ID":"85435","ELEMENT_SET_NO":"999","REV_AT_EPOCH":"3","BSTAR":"0.00000000000000","MEAN_MOTION_DOT":"-0.00000054","MEAN_MOTION_DDOT":"0.0000000000000","SEMIMAJOR_AXIS":"7004.807","PERIOD":"97.242","APOAPSIS":"635.774","PERIAPSIS":"617.569","OBJECT_TYPE":"TBA","RCS_SIZE":null,"COUNTRY_CODE":null,"LAUNCH_DATE":null,"SITE":null,"DECAY_DATE":null,"FILE":"2670166","GP_ID":"145195318","TLE_LINE0":"0 TBA - TO BE ASSIGNED","TLE_LINE1":"1 85435U          19354.82350091 -.00000054  00000-0  00000+0 0  9994","TLE_LINE2":"2 85435  97.9717  66.9142 0012995 251.4281 267.3479 14.80841181    31"},{"CCSDS_OMM_VERS":"2.0","COMMENT":"GENERATED VIA SPACE-TRACK.ORG API","CREATION_DATE":"2019-12-20T20:50:21","ORIGINATOR":"18 SPCS","OBJECT_NAME":"TBA - TO BE ASSIGNED","OBJECT_ID":null,"CENTER_NAME":"EARTH","REF_FRAME":"TEME","TIME_SYSTEM":"UTC","MEAN_ELEMENT_THEORY":"SGP4","EPOCH":"2019-12-20T19:34:17.118624","MEAN_MOTION":"14.82167552","ECCENTRICITY":"0.00178600","INCLINATION":"97.9814","RA_OF_ASC_NODE":"66.8992","ARG_OF_PERICENTER":"262.5531","MEAN_ANOMALY":"213.6463","EPHEMERIS_TYPE":"0","CLASSIFICATION_TYPE":"U","NORAD_CAT_ID":"85436","ELEMENT_SET_NO":"999","REV_AT_EPOCH":"2","BSTAR":"0.00000000000000","MEAN_MOTION_DOT":"-0.00000055","MEAN_MOTION_DDOT":"0.0000000000000","SEMIMAJOR_AXIS":"7000.627","PERIOD":"97.155","APOAPSIS":"634.995","PERIAPSIS":"609.989","OBJECT_TYPE":"TBA","RCS_SIZE":null,"COUNTRY_CODE":null,"LAUNCH_DATE":null,"SITE":null,"DECAY_DATE":null,"FILE":"2670166","GP_ID":"145195317","TLE_LINE0":"0 TBA - TO BE ASSIGNED","TLE_LINE1":"1 85436U          19354.81547591 -.00000055  00000-0  00000+0 0  9998","TLE_LINE2":"2 85436  97.9814  66.8992 0017860 262.5531 213.6463 14.82167552    20"},{"CCSDS_OMM_VERS":"2.0","COMMENT":"GENERATED VIA SPACE-TRACK.ORG API","CREATION_DATE":"2019-12-20T18:20:13","ORIGINATOR":"18 SPCS","OBJECT_NAME":"TBA - TO BE ASSIGNED","OBJECT_ID":null,"CENTER_NAME":"EARTH","REF_FRAME":"TEME","TIME_SYSTEM":"UTC","MEAN_ELEMENT_THEORY":"SGP4","EPOCH":"2019-12-20T16:22:47.116992","MEAN_MOTION":"14.83777196","ECCENTRICITY":"0.00303210","INCLINATION":"97.9493","RA_OF_ASC_NODE":"66.8138","ARG_OF_PERICENTER":"258.3760","MEAN_ANOMALY":"228.9168","EPHEMERIS_TYPE":"0","CLASSIFICATION_TYPE":"U","NORAD_CAT_ID":"85437","ELEMENT_SET_NO":"999","REV_AT_EPOCH":"1","BSTAR":"0.00000000000000","MEAN_MOTION_DOT":"-0.00000056","MEAN_MOTION_DDOT":"0.0000000000000","SEMIMAJOR_AXIS":"6995.563","PERIOD":"97.049","APOAPSIS":"638.639","PERIAPSIS":"596.217","OBJECT_TYPE":"TBA","RCS_SIZE":null,"COUNTRY_CODE":null,"LAUNCH_DATE":null,"SITE":null,"DECAY_DATE":null,"FILE":"2670158","GP_ID":"145195286","TLE_LINE0":"0 TBA - TO BE ASSIGNED","TLE_LINE1":"1 85437U          19354.68248978 -.00000056  00000-0  00000+0 0  9992","TLE_LINE2":"2 85437  97.9493  66.8138 0030321 258.3760 228.9168 14.83777196    12"},{"CCSDS_OMM_VERS":"2.0","COMMENT":"GENERATED VIA SPACE-TRACK.ORG API","CREATION_DATE":"2019-12-20T21:40:13","ORIGINATOR":"18 SPCS","OBJECT_NAME":"TBA - TO BE ASSIGNED","OBJECT_ID":null,"CENTER_NAME":"EARTH","REF_FRAME":"TEME","TIME_SYSTEM":"UTC","MEAN_ELEMENT_THEORY":"SGP4","EPOCH":"2019-12-20T21:02:18.087072","MEAN_MOTION":"14.80700100","ECCENTRICITY":"0.00141890","INCLINATION":"97.9747","RA_OF_ASC_NODE":"66.9693","ARG_OF_PERICENTER":"250.2087","MEAN_ANOMALY":"189.9096","EPHEMERIS_TYPE":"0","CLASSIFICATION_TYPE":"U","NORAD_CAT_ID":"85438","ELEMENT_SET_NO":"999","REV_AT_EPOCH":"3","BSTAR":"0.00000000000000","MEAN_MOTION_DOT":"-0.00000054","MEAN_MOTION_DDOT":"0.0000000000000","SEMIMAJOR_AXIS":"7005.252","PERIOD":"97.251","APOAPSIS":"637.056","PERIAPSIS":"617.177","OBJECT_TYPE":"TBA","RCS_SIZE":null,"COUNTRY_CODE":null,"LAUNCH_DATE":null,"SITE":null,"DECAY_DATE":null,"FILE":"2670177","GP_ID":"145195334","TLE_LINE0":"0 TBA - TO BE ASSIGNED","TLE_LINE1":"1 85438U          19354.87659823 -.00000054  00000-0  00000+0 0  9997","TLE_LINE2":"2 85438  97.9747  66.9693 0014189 250.2087 189.9096 14.80700100    35"}]